{"fetched_at":"2026-03-29T02:12:04Z","count":15717,"tles":[{"name":"STARLINK-31266","line1":"1 59087U 24041P   26087.58802085  .00000633  00000+0  32493-4 0  9995","line2":"2 59087  43.0009 203.8146 0001246 241.3835 118.6891 15.27593584117215","category":"Starlink"}]}