{
  "norad_id": 59087,
  "name": "STARLINK-31266",
  "history": [
    {
      "epoch": "2026-03-28T14:06:45.001440",
      "apogee_km": 483.86400579224664,
      "perigee_km": 482.15283612426083,
      "latitude_deg": -24.847077819340374,
      "longitude_deg": 145.15000159991905,
      "semi_major_axis_km": 6861.145420958253,
      "eccentricity": 0.0001247,
      "inclination_deg": 43.0009,
      "raan_deg": 203.8146,
      "arg_perigee_deg": 241.3835,
      "mean_anomaly_deg": 118.6891,
      "mean_motion_rev_day": 15.27593584
    }
  ]
}